NOAA 15                 
1 25338U 98030A   20275.45619365  .00000034  00000-0  32735-4 0  9997
2 25338  98.7110 299.9353 0009597 319.1064  40.9395 14.25991761164335
DMSP 5D-3 F15 (USA 147) 
1 25991U 99067A   20275.55507127 -.00000076  00000-0 -15260-4 0  9998
2 25991  98.9826 247.7923 0010138 154.1707 351.1527 14.16470526 75442
METEOSAT-8 (MSG-1)      
1 27509U 02040B   20275.51482255  .00000131  00000-0  00000-0 0  9992
2 27509   6.9083  53.6204 0001821 150.2689  33.6561  1.00278613 66356
DMSP 5D-3 F16 (USA 172) 
1 28054U 03048A   20275.55974605 -.00000030  00000-0  77249-5 0  9999
2 28054  98.9232 254.3082 0006519 286.3342 218.1461 14.13646188874775
NOAA 18                 
1 28654U 05018A   20275.55592145  .00000070  00000-0  62739-4 0  9999
2 28654  99.0329 332.9197 0013288 293.4821  66.4954 14.12543204791898
METEOSAT-9 (MSG-2)      
1 28912U 05049B   20275.17341102  .00000009  00000-0  00000-0 0  9994
2 28912   4.6459  69.6734 0000852  54.7681 311.6264  1.00273600 54172
FORMOSAT-3 FM6          
1 29047U 06011A   20275.33913197  .00000066  00000-0  42201-4 0  9997
2 29047  71.9767 253.8676 0052244 240.5505 119.0413 14.28749095756440
FORMOSAT-3 FM1          
1 29048U 06011B   20275.43041484  .00000131  00000-0  68047-4 0  9999
2 29048  71.9667 164.4714 0044313 199.5576 160.3862 14.28719315758945
FORMOSAT-3 FM5          
1 29049U 06011C   20275.49552567  .00000065  00000-0  41956-4 0  9991
2 29049  72.0220 336.5889 0036422 225.4691 134.3469 14.28799211754748
FORMOSAT-3 FM3          
1 29050U 06011D   20275.48903121  .00000169  00000-0  45771-4 0  9992
2 29050  72.0138 111.8573 0048483 133.4375 227.0828 14.58951477771799
FORMOSAT-3 FM4          
1 29051U 06011E   20275.35338481  .00000057  00000-0  38025-4 0  9990
2 29051  72.0041 238.7261 0066199 102.1270 258.7294 14.28832025757311
FORMOSAT-3 FM2          
1 29052U 06011F   20275.48518328  .00000090  00000-0  51364-4 0  9993
2 29052  72.0342 312.9830 0040231 185.2047 174.8678 14.28938281754846
EWS-G1 (GOES 13)        
1 29155U 06018A   20275.57688072  .00000026  00000-0  00000-0 0  9994
2 29155   0.1181 131.6478 0008836  76.2259  71.9473  1.00274827 22467
METOP-A                 
1 29499U 06044A   20275.52035267  .00000010  00000-0  23642-4 0  9995
2 29499  98.5117 318.6166 0000892  67.3915  39.1140 14.21490612723771
DMSP 5D-3 F17 (USA 191) 
1 29522U 06050A   20275.55487318  .00000027  00000-0  36998-4 0  9996
2 29522  98.7994 290.3470 0008965 231.8486 128.1880 14.14018661717705
FENGYUN 3A              
1 32958U 08026A   20275.43043031  .00000003  00000-0  21424-4 0  9997
2 32958  98.4172 255.7293 0009453  36.0746 324.1067 14.18634364639854
FENGYUN 2E              
1 33463U 08066A   20275.43382705 -.00000209  00000-0  00000-0 0  9999
2 33463   4.5595  68.1833 0003251 308.3367 236.6384  1.00278796 43187
NOAA 19                 
1 33591U 09005A   20275.49660974 -.00000010  00000-0  19758-4 0  9992
2 33591  99.1971 283.6096 0014670 135.9526 224.2816 14.12433393600365
GOES 14                 
1 35491U 09033A   20275.57205905 -.00000104  00000-0  00000-0 0  9992
2 35491   0.3443 269.7512 0013433 304.3687 258.1959  1.00273410 41210
METEOR-M 1              
1 35865U 09049A   20275.46720293  .00000012  00000-0  24162-4 0  9990
2 35865  98.4491 258.0498 0001316 222.2116 137.8961 14.22250829572988
DMSP 5D-3 F18 (USA 210) 
1 35951U 09057A   20275.51809781  .00000048  00000-0  48334-4 0  9997
2 35951  98.6540 261.8848 0012230  67.8397 292.4073 14.13302253338669
GOES 15                 
1 36411U 10008A   20275.55749215  .00000045  00000-0  00000-0 0  9997
2 36411   0.1310 103.9965 0001799 339.5745 359.4601  1.00271112 38764
COMS 1                  
1 36744U 10032A   20275.46507612 -.00000356  00000-0  00000-0 0  9992
2 36744   0.0199 125.4082 0000910  79.5893 101.2546  1.00272499 37742
FENGYUN 3B              
1 37214U 10059A   20275.48399825  .00000020  00000-0  33441-4 0  9997
2 37214  99.0565 258.9072 0016741 330.4457  29.5769 14.15959205512682
SUOMI NPP               
1 37849U 11061A   20275.56103983 -.00000010  00000-0  15855-4 0  9991
2 37849  98.7069 212.0590 0000879  59.7345  45.2669 14.19555423462685
FENGYUN 2F              
1 38049U 12002A   20275.59979855 -.00000366  00000-0  00000-0 0  9998
2 38049   2.3048  83.2344 0001954   6.2033 249.2249  1.00282295 31982
METEOSAT-10 (MSG-3)     
1 38552U 12035B   20275.44858354  .00000048  00000-0  00000-0 0  9993
2 38552   1.3176 346.8698 0001077 212.3392 342.3191  1.00266852 29952
METOP-B                 
1 38771U 12049A   20275.57209807  .00000012  00000-0  25324-4 0  9999
2 38771  98.7189 333.2354 0002356  72.8443  33.7490 14.21482384417103
FENGYUN 3C              
1 39260U 13052A   20274.64069226 -.00000011  00000-0  15807-4 0  9999
2 39260  98.5397 320.7352 0009932 274.5688  85.4355 14.15845984363504
METEOR-M 2              
1 40069U 14037A   20275.39822827 -.00000022  00000-0  93162-5 0  9992
2 40069  98.4942 308.8830 0005390 347.0395  13.0645 14.20675539323251
HIMAWARI-8              
1 40267U 14060A   20275.50952153 -.00000286  00000-0  00000-0 0  9993
2 40267   0.0212 164.1111 0001159  32.8843 137.8122  1.00273289 21857
FENGYUN 2G              
1 40367U 14090A   20275.59822007 -.00000309  00000-0  00000-0 0  9996
2 40367   2.3308  93.1526 0002097 306.6961 285.8018  1.00267499 21130
METEOSAT-11 (MSG-4)     
1 40732U 15034A   20275.44910434 -.00000015  00000-0  00000-0 0  9991
2 40732   0.5932 270.0431 0002156 258.0568   4.3869  1.00264576 19137
ELEKTRO-L 2             
1 41105U 15074A   20275.46021590 -.00000125  00000-0  00000-0 0  9990
2 41105   1.4480  95.8932 0002892 102.4613 323.5400  1.00271627 17612
HIMAWARI-9              
1 41836U 16064A   20275.50952153 -.00000287  00000-0  00000-0 0  9993
2 41836   0.0207 212.0557 0000815  19.1921 103.6208  1.00267415 14283
GOES 16                 
1 41866U 16071A   20275.49153056 -.00000259  00000-0  00000-0 0  9996
2 41866   0.0164 185.5788 0001141  59.6022 227.2634  1.00267727 14217
FENGYUN 4A              
1 41882U 16077A   20275.59917966 -.00000342  00000-0  00000-0 0  9992
2 41882   0.2264 284.3236 0003973 145.5823 261.2071  1.00276619 14070
CYGFM05                 
1 41884U 16078A   20275.27501838  .00000483  00000-0  27141-4 0  9991
2 41884  34.9558 122.5910 0016749 270.4756  89.4036 15.14694202210163
CYGFM04                 
1 41885U 16078B   20275.27533872  .00000514  00000-0  28406-4 0  9995
2 41885  34.9491 115.2110 0015112 280.9846  78.9165 15.15207749210231
CYGFM02                 
1 41886U 16078C   20275.00467554  .00000523  00000-0  28857-4 0  9990
2 41886  34.9582 118.6994 0015857 274.6964  85.1936 15.15206557210183
CYGFM01                 
1 41887U 16078D   20274.99308923  .00000508  00000-0  28624-4 0  9997
2 41887  34.9525 125.6421 0017195 268.6044  91.2697 15.14505945210109
CYGFM08                 
1 41888U 16078E   20275.28534573  .00000509  00000-0  28346-4 0  9995
2 41888  34.9496 119.1646 0016363 278.2043  81.6812 15.14922758210181
CYGFM06                 
1 41889U 16078F   20275.24752760  .00000500  00000-0  27694-4 0  9998
2 41889  34.9577 115.8809 0014819 276.7298  83.1727 15.15203401210220
CYGFM07                 
1 41890U 16078G   20274.96246109  .00000526  00000-0  29029-4 0  9995
2 41890  34.9514 116.6980 0014568 277.4757  82.4300 15.15199226210184
CYGFM03                 
1 41891U 16078H   20274.95820167  .00000528  00000-0  29125-4 0  9996
2 41891  34.9546 117.0008 0014064 276.1497  83.7612 15.15194568210188
FENGYUN 3D              
1 43010U 17072A   20275.43226328  .00000005  00000-0  23235-4 0  9995
2 43010  98.7567 213.5846 0002238 109.5128 250.6286 14.19749503149233
NOAA 20                 
1 43013U 17073A   20275.57510098 -.00000001  00000-0  20451-4 0  9998
2 43013  98.7235 211.9032 0001366  76.3879 283.7450 14.19537332148719
GOES 17                 
1 43226U 18022A   20275.44023208  .00000086  00000-0  00000-0 0  9993
2 43226   0.0541 297.4489 0000381 217.1781 237.3012  1.00271617  9531
FENGYUN 2H              
1 43491U 18050A   20275.59411999 -.00000139  00000-0  00000-0 0  9992
2 43491   0.4117 269.4012 0003129 243.4286 150.9958  1.00270738  8603
METOP-C                 
1 43689U 18087A   20275.51824417  .00000003  00000-0  21436-4 0  9995
2 43689  98.6872 333.5123 0002903  58.4834 301.6627 14.21503653 98662
GEO-KOMPSAT-2A          
1 43823U 18100A   20275.27965889 -.00000356  00000-0  00000-0 0  9995
2 43823   0.0161  10.9135 0001530 124.1471 104.3407  1.00269248  6713
IOD-1 GEMS              
1 44385U 98067QK  20275.52643673  .00030087  00000-0  31746-3 0  9998
2 44385  51.6384 157.6780 0001099  44.6674 315.4409 15.63958681 71070
METEOR-M2 2             
1 44387U 19038A   20275.49012121 -.00000012  00000-0  13639-4 0  9993
2 44387  98.6303 233.4830 0000653 350.4458   9.6707 14.23681436 64628
